[{"OBJECT_NAME":"ONEWEB-0215","OBJECT_ID":"2021-045AK","EPOCH":"2026-02-09T04:13:35.229216","MEAN_MOTION":13.15549423,"ECCENTRICITY":0.00010424,"INCLINATION":87.8988,"RA_OF_ASC_NODE":284.7291,"ARG_OF_PERICENTER":104.6158,"MEAN_ANOMALY":255.5088,"EPHEMERIS_TYPE":0,"CLASSIFICATION_TYPE":"U","NORAD_CAT_ID":48800,"ELEMENT_SET_NO":999,"REV_AT_EPOCH":22746,"BSTAR":5.0301938e-5,"MEAN_MOTION_DOT":3.2e-7,"MEAN_MOTION_DDOT":0},{"OBJECT_NAME":"ONEWEB-0216","OBJECT_ID":"2021-045AL","EPOCH":"2026-02-09T04:27:16.644384","MEAN_MOTION":13.15548928,"ECCENTRICITY":0.00014318,"INCLINATION":87.8975,"RA_OF_ASC_NODE":284.7502,"ARG_OF_PERICENTER":76.7682,"MEAN_ANOMALY":283.3608,"EPHEMERIS_TYPE":0,"CLASSIFICATION_TYPE":"U","NORAD_CAT_ID":48801,"ELEMENT_SET_NO":999,"REV_AT_EPOCH":22747,"BSTAR":0.00015042897,"MEAN_MOTION_DOT":6.9e-7,"MEAN_MOTION_DDOT":0},{"OBJECT_NAME":"ONEWEB-0239","OBJECT_ID":"2021-045AM","EPOCH":"2026-02-09T04:34:06.980448","MEAN_MOTION":13.15549805,"ECCENTRICITY":0.00011979,"INCLINATION":87.8975,"RA_OF_ASC_NODE":284.7635,"ARG_OF_PERICENTER":116.7049,"MEAN_ANOMALY":243.4204,"EPHEMERIS_TYPE":0,"CLASSIFICATION_TYPE":"U","NORAD_CAT_ID":48802,"ELEMENT_SET_NO":999,"REV_AT_EPOCH":22751,"BSTAR":0.00022673174,"MEAN_MOTION_DOT":9.8e-7,"MEAN_MOTION_DDOT":0},{"OBJECT_NAME":"ONEWEB-0249","OBJECT_ID":"2021-060A","EPOCH":"2026-02-09T03:35:17.400480","MEAN_MOTION":13.16471771,"ECCENTRICITY":0.00014819,"INCLINATION":87.9001,"RA_OF_ASC_NODE":254.2629,"ARG_OF_PERICENTER":128.1559,"MEAN_ANOMALY":231.9705,"EPHEMERIS_TYPE":0,"CLASSIFICATION_TYPE":"U","NORAD_CAT_ID":48967,"ELEMENT_SET_NO":999,"REV_AT_EPOCH":22276,"BSTAR":-0.017543401,"MEAN_MOTION_DOT":-6.677e-5,"MEAN_MOTION_DDOT":0},{"OBJECT_NAME":"ONEWEB-0250","OBJECT_ID":"2021-060B","EPOCH":"2026-02-09T02:05:53.313504","MEAN_MOTION":13.25825548,"ECCENTRICITY":0.00023892,"INCLINATION":87.8999,"RA_OF_ASC_NODE":252.45,"ARG_OF_PERICENTER":111.3059,"MEAN_ANOMALY":248.8332,"EPHEMERIS_TYPE":0,"CLASSIFICATION_TYPE":"U","NORAD_CAT_ID":48968,"ELEMENT_SET_NO":999,"REV_AT_EPOCH":22324,"BSTAR":0.00016144427,"MEAN_MOTION_DOT":8.4e-7,"MEAN_MOTION_DDOT":0},{"OBJECT_NAME":"ONEWEB-0252","OBJECT_ID":"2021-060D","EPOCH":"2026-02-09T02:31:01.153344","MEAN_MOTION":13.16595421,"ECCENTRICITY":0.0001355,"INCLINATION":87.9,"RA_OF_ASC_NODE":254.2658,"ARG_OF_PERICENTER":82.1106,"MEAN_ANOMALY":278.0179,"EPHEMERIS_TYPE":0,"CLASSIFICATION_TYPE":"U","NORAD_CAT_ID":48970,"ELEMENT_SET_NO":999,"REV_AT_EPOCH":22280,"BSTAR":0.00025818128,"MEAN_MOTION_DOT":1.12e-6,"MEAN_MOTION_DDOT":0},{"OBJECT_NAME":"ONEWEB-0253","OBJECT_ID":"2021-060E","EPOCH":"2026-02-09T02:15:04.475520","MEAN_MOTION":13.16594771,"ECCENTRICITY":0.00014195,"INCLINATION":87.9002,"RA_OF_ASC_NODE":254.2729,"ARG_OF_PERICENTER":94.1803,"MEAN_ANOMALY":265.949,"EPHEMERIS_TYPE":0,"CLASSIFICATION_TYPE":"U","NORAD_CAT_ID":48971,"ELEMENT_SET_NO":999,"REV_AT_EPOCH":22273,"BSTAR":-5.386858e-5,"MEAN_MOTION_DOT":-8.0e-8,"MEAN_MOTION_DDOT":0},{"OBJECT_NAME":"ONEWEB-0254","OBJECT_ID":"2021-060F","EPOCH":"2026-02-09T02:28:44.906592","MEAN_MOTION":13.16594301,"ECCENTRICITY":0.00014205,"INCLINATION":87.9006,"RA_OF_ASC_NODE":254.2649,"ARG_OF_PERICENTER":103.4532,"MEAN_ANOMALY":256.6757,"EPHEMERIS_TYPE":0,"CLASSIFICATION_TYPE":"U","NORAD_CAT_ID":48972,"ELEMENT_SET_NO":999,"REV_AT_EPOCH":22273,"BSTAR":4.3502517e-5,"MEAN_MOTION_DOT":2.9e-7,"MEAN_MOTION_DDOT":0},{"OBJECT_NAME":"ONEWEB-0255","OBJECT_ID":"2021-060G","EPOCH":"2026-02-09T03:23:29.266080","MEAN_MOTION":13.16595306,"ECCENTRICITY":0.00014011,"INCLINATION":87.8998,"RA_OF_ASC_NODE":254.2677,"ARG_OF_PERICENTER":95.0315,"MEAN_ANOMALY":265.0976,"EPHEMERIS_TYPE":0,"CLASSIFICATION_TYPE":"U","NORAD_CAT_ID":48973,"ELEMENT_SET_NO":999,"REV_AT_EPOCH":22281,"BSTAR":4.7034395e-5,"MEAN_MOTION_DOT":3.1e-7,"MEAN_MOTION_DDOT":0},{"OBJECT_NAME":"ONEWEB-0256","OBJECT_ID":"2021-060H","EPOCH":"2026-02-09T02:11:38.522976","MEAN_MOTION":13.1659559,"ECCENTRICITY":0.0001545,"INCLINATION":87.8995,"RA_OF_ASC_NODE":254.2839,"ARG_OF_PERICENTER":82.0508,"MEAN_ANOMALY":278.0798,"EPHEMERIS_TYPE":0,"CLASSIFICATION_TYPE":"U","NORAD_CAT_ID":48974,"ELEMENT_SET_NO":999,"REV_AT_EPOCH":22277,"BSTAR":7.2533959e-5,"MEAN_MOTION_DOT":4.1e-7,"MEAN_MOTION_DDOT":0},{"OBJECT_NAME":"ONEWEB-0257","OBJECT_ID":"2021-060J","EPOCH":"2026-02-09T02:58:23.328768","MEAN_MOTION":13.16594687,"ECCENTRICITY":0.00013521,"INCLINATION":87.9004,"RA_OF_ASC_NODE":254.2616,"ARG_OF_PERICENTER":87.6849,"MEAN_ANOMALY":272.4436,"EPHEMERIS_TYPE":0,"CLASSIFICATION_TYPE":"U","NORAD_CAT_ID":48975,"ELEMENT_SET_NO":999,"REV_AT_EPOCH":22273,"BSTAR":-8.4980612e-5,"MEAN_MOTION_DOT":-2.0e-7,"MEAN_MOTION_DDOT":0},{"OBJECT_NAME":"ONEWEB-0258","OBJECT_ID":"2021-060K","EPOCH":"2026-02-09T03:00:40.489632","MEAN_MOTION":13.16594705,"ECCENTRICITY":0.00015968,"INCLINATION":87.9,"RA_OF_ASC_NODE":254.2734,"ARG_OF_PERICENTER":88.7834,"MEAN_ANOMALY":271.348,"EPHEMERIS_TYPE":0,"CLASSIFICATION_TYPE":"U","NORAD_CAT_ID":48976,"ELEMENT_SET_NO":999,"REV_AT_EPOCH":22274,"BSTAR":-7.0049972e-5,"MEAN_MOTION_DOT":-1.4e-7,"MEAN_MOTION_DDOT":0},{"OBJECT_NAME":"ONEWEB-0259","OBJECT_ID":"2021-060L","EPOCH":"2026-02-09T02:51:32.991840","MEAN_MOTION":13.16594623,"ECCENTRICITY":0.00014539,"INCLINATION":87.9003,"RA_OF_ASC_NODE":254.2731,"ARG_OF_PERICENTER":93.8174,"MEAN_ANOMALY":266.3123,"EPHEMERIS_TYPE":0,"CLASSIFICATION_TYPE":"U","NORAD_CAT_ID":48977,"ELEMENT_SET_NO":999,"REV_AT_EPOCH":22277,"BSTAR":0.00017717412,"MEAN_MOTION_DOT":8.1e-7,"MEAN_MOTION_DDOT":0},{"OBJECT_NAME":"ONEWEB-0260","OBJECT_ID":"2021-060M","EPOCH":"2026-02-09T02:38:59.982144","MEAN_MOTION":13.16595979,"ECCENTRICITY":0.00014401,"INCLINATION":87.899,"RA_OF_ASC_NODE":254.2818,"ARG_OF_PERICENTER":72.3517,"MEAN_ANOMALY":287.7771,"EPHEMERIS_TYPE":0,"CLASSIFICATION_TYPE":"U","NORAD_CAT_ID":48978,"ELEMENT_SET_NO":999,"REV_AT_EPOCH":22275,"BSTAR":-8.9957675e-5,"MEAN_MOTION_DOT":-2.2e-7,"MEAN_MOTION_DDOT":0},{"OBJECT_NAME":"ONEWEB-0261","OBJECT_ID":"2021-060N","EPOCH":"2026-02-09T01:55:41.383776","MEAN_MOTION":13.16595012,"ECCENTRICITY":0.00011604,"INCLINATION":87.8994,"RA_OF_ASC_NODE":254.2896,"ARG_OF_PERICENTER":94.6021,"MEAN_ANOMALY":265.5242,"EPHEMERIS_TYPE":0,"CLASSIFICATION_TYPE":"U","NORAD_CAT_ID":48979,"ELEMENT_SET_NO":999,"REV_AT_EPOCH":22280,"BSTAR":-8.9264721e-5,"MEAN_MOTION_DOT":-2.1e-7,"MEAN_MOTION_DDOT":0},{"OBJECT_NAME":"ONEWEB-0262","OBJECT_ID":"2021-060P","EPOCH":"2026-02-09T03:16:37.950240","MEAN_MOTION":13.1659485,"ECCENTRICITY":0.00015522,"INCLINATION":87.9004,"RA_OF_ASC_NODE":254.2574,"ARG_OF_PERICENTER":97.5721,"MEAN_ANOMALY":262.5587,"EPHEMERIS_TYPE":0,"CLASSIFICATION_TYPE":"U","NORAD_CAT_ID":48980,"ELEMENT_SET_NO":999,"REV_AT_EPOCH":22277,"BSTAR":9.9065354e-5,"MEAN_MOTION_DOT":5.1e-7,"MEAN_MOTION_DDOT":0},{"OBJECT_NAME":"ONEWEB-0263","OBJECT_ID":"2021-060Q","EPOCH":"2026-02-09T02:12:46.939680","MEAN_MOTION":13.16594439,"ECCENTRICITY":0.00012493,"INCLINATION":87.9002,"RA_OF_ASC_NODE":254.2778,"ARG_OF_PERICENTER":101.5497,"MEAN_ANOMALY":258.5775,"EPHEMERIS_TYPE":0,"CLASSIFICATION_TYPE":"U","NORAD_CAT_ID":48981,"ELEMENT_SET_NO":999,"REV_AT_EPOCH":22273,"BSTAR":7.938842e-5,"MEAN_MOTION_DOT":4.3e-7,"MEAN_MOTION_DDOT":0}]
