ONEWEB-0215             
1 48800U 21045AK  26040.17610219  .00000032  00000+0  50302-4 0  9999
2 48800  87.8988 284.7291 0001042 104.6158 255.5088 13.15549423227466
ONEWEB-0216             
1 48801U 21045AL  26040.18560931  .00000069  00000+0  15043-3 0  9998
2 48801  87.8975 284.7502 0001431  76.7682 283.3608 13.15548928227478
ONEWEB-0239             
1 48802U 21045AM  26040.19035857  .00000098  00000+0  22673-3 0  9993
2 48802  87.8975 284.7635 0001197 116.7049 243.4204 13.15549805227516
ONEWEB-0249             
1 48967U 21060A   26040.14950695 -.00006677  00000+0 -17543-1 0  9992
2 48967  87.9001 254.2629 0001481 128.1559 231.9705 13.16471771222760
ONEWEB-0250             
1 48968U 21060B   26040.08742261  .00000084  00000+0  16144-3 0  9996
2 48968  87.8999 252.4500 0002389 111.3059 248.8332 13.25825548223243
ONEWEB-0252             
1 48970U 21060D   26040.10487446  .00000112  00000+0  25818-3 0  9993
2 48970  87.9000 254.2658 0001355  82.1106 278.0179 13.16595421222803
ONEWEB-0253             
1 48971U 21060E   26040.09380180 -.00000008  00000+0 -53869-4 0  9993
2 48971  87.9002 254.2729 0001419  94.1803 265.9490 13.16594771222733
ONEWEB-0254             
1 48972U 21060F   26040.10329753  .00000029  00000+0  43503-4 0  9990
2 48972  87.9006 254.2649 0001420 103.4532 256.6757 13.16594301222736
ONEWEB-0255             
1 48973U 21060G   26040.14131095  .00000031  00000+0  47034-4 0  9991
2 48973  87.8998 254.2677 0001401  95.0315 265.0976 13.16595306222813
ONEWEB-0256             
1 48974U 21060H   26040.09141809  .00000041  00000+0  72534-4 0  9994
2 48974  87.8995 254.2839 0001545  82.0508 278.0798 13.16595590222776
ONEWEB-0257             
1 48975U 21060J   26040.12388112 -.00000020  00000+0 -84981-4 0  9997
2 48975  87.9004 254.2616 0001352  87.6849 272.4436 13.16594687222736
ONEWEB-0258             
1 48976U 21060K   26040.12546863 -.00000014  00000+0 -70050-4 0  9992
2 48976  87.9000 254.2734 0001596  88.7834 271.3480 13.16594705222749
ONEWEB-0259             
1 48977U 21060L   26040.11913185  .00000081  00000+0  17717-3 0  9999
2 48977  87.9003 254.2731 0001453  93.8174 266.3123 13.16594623222776
ONEWEB-0260             
1 48978U 21060M   26040.11041646 -.00000022  00000+0 -89958-4 0  9998
2 48978  87.8990 254.2818 0001440  72.3517 287.7771 13.16595979222755
ONEWEB-0261             
1 48979U 21060N   26040.08034009 -.00000021  00000+0 -89265-4 0  9990
2 48979  87.8994 254.2896 0001160  94.6021 265.5242 13.16595012222803
ONEWEB-0262             
1 48980U 21060P   26040.13655035  .00000051  00000+0  99065-4 0  9996
2 48980  87.9004 254.2574 0001552  97.5721 262.5587 13.16594850222779
ONEWEB-0263             
1 48981U 21060Q   26040.09220995  .00000043  00000+0  79388-4 0  9992
2 48981  87.9002 254.2778 0001249 101.5497 258.5775 13.16594439222736
